{
  "norad_id": 63424,
  "name": "STARLINK-33655",
  "history": [
    {
      "epoch": "2026-03-28T18:30:31.197024Z",
      "apogee_km": 483.26215353338193,
      "perigee_km": 482.6512417505428,
      "latitude_deg": 3.4831548023461205e-05,
      "longitude_deg": -104.17361022754751,
      "height_km": 482.9478749882846,
      "semi_major_axis_km": 6861.093697641962,
      "eccentricity": 4.452e-05,
      "inclination_deg": 43.0009,
      "raan_deg": 359.6432,
      "arg_perigee_deg": 225.1585,
      "mean_anomaly_deg": 134.9231,
      "mean_motion_rev_day": 15.27610858
    },
    {
      "epoch": "2026-03-29T02:21:17.511840Z",
      "apogee_km": 483.80405142436666,
      "perigee_km": 482.0380150866058,
      "latitude_deg": 1.5098651731842581e-05,
      "longitude_deg": 135.96465836436505,
      "height_km": 482.6160645095637,
      "semi_major_axis_km": 6861.0580332554855,
      "eccentricity": 0.0001287,
      "inclination_deg": 43.0019,
      "raan_deg": 357.7967,
      "arg_perigee_deg": 275.3146,
      "mean_anomaly_deg": 84.7559,
      "mean_motion_rev_day": 15.27622769
    },
    {
      "epoch": "2026-03-30T01:53:38.356224Z",
      "apogee_km": 484.0156697998118,
      "perigee_km": 481.9919077127597,
      "latitude_deg": -2.6688433944721623e-05,
      "longitude_deg": 136.37364530488253,
      "height_km": 482.99158010074956,
      "semi_major_axis_km": 6861.1407887562855,
      "eccentricity": 0.00014748,
      "inclination_deg": 43.0024,
      "raan_deg": 352.2593,
      "arg_perigee_deg": 257.9749,
      "mean_anomaly_deg": 102.0937,
      "mean_motion_rev_day": 15.27595131
    },
    {
      "epoch": "2026-03-30T09:44:25.446912Z",
      "apogee_km": 483.7147329809277,
      "perigee_km": 482.33563938150473,
      "latitude_deg": -4.935130279903197e-05,
      "longitude_deg": 16.507969540340238,
      "height_km": 482.90214220486075,
      "semi_major_axis_km": 6861.1621861812155,
      "eccentricity": 0.0001005,
      "inclination_deg": 43.0025,
      "raan_deg": 350.4121,
      "arg_perigee_deg": 261.6335,
      "mean_anomaly_deg": 98.4402,
      "mean_motion_rev_day": 15.27587985
    },
    {
      "epoch": "2026-03-30T17:35:12.693984Z",
      "apogee_km": 483.9095277692404,
      "perigee_km": 482.2379996029913,
      "latitude_deg": 1.6566966126085417e-05,
      "longitude_deg": -103.35786514890371,
      "height_km": 483.0140287223747,
      "semi_major_axis_km": 6861.210763686116,
      "eccentricity": 0.00012181,
      "inclination_deg": 43.001,
      "raan_deg": 348.5653,
      "arg_perigee_deg": 258.7081,
      "mean_anomaly_deg": 101.3634,
      "mean_motion_rev_day": 15.27571762
    },
    {
      "epoch": "2026-03-30T23:51:50.559552Z",
      "apogee_km": 484.11953808108683,
      "perigee_km": 481.9870801330162,
      "latitude_deg": 4.72421974236338e-06,
      "longitude_deg": 160.74915450160043,
      "height_km": 482.90056792370336,
      "semi_major_axis_km": 6861.190309107052,
      "eccentricity": 0.0001554,
      "inclination_deg": 43.0006,
      "raan_deg": 347.0879,
      "arg_perigee_deg": 266.2154,
      "mean_anomaly_deg": 93.852,
      "mean_motion_rev_day": 15.27578593
    }
  ]
}